ONEWEB-0331             
1 49198U 21083N   26002.50892181  .00000137  00000+0  31469-3 0  9995
2 49198  87.9173   8.3446 0001903  99.7563 260.3784 13.18687588208178
ONEWEB-0333             
1 49199U 21083P   26002.45389711 -.00000282  00000+0 -80746-3 0  9995
2 49199  87.8971 353.1884 0001765  85.9122 274.2209 13.13469102209155
ONEWEB-0334             
1 49200U 21083Q   26002.84121397  .00000054  00000+0  99706-4 0  9997
2 49200  87.9214 307.4395 0001930  46.0628 314.0664 13.20773635214961
ONEWEB-0335             
1 49201U 21083R   26002.52500053 -.00000157  00000+0 -46541-3 0  9997
2 49201  87.8978 353.1632 0001823  91.9927 268.1411 13.13469082209178
ONEWEB-0336             
1 49202U 21083S   26002.49622032  .00000383  00000+0  10136-2 0  9995
2 49202  87.8979 353.1659 0001875  98.9487 261.1854 13.13468530209164
ONEWEB-0337             
1 49203U 21083T   26002.50624038  .00000350  00000+0  92268-3 0  9997
2 49203  87.8978 353.1755 0001604  93.4916 266.6396 13.13470364209167
ONEWEB-0338             
1 49204U 21083U   26002.81597691  .00000013  00000+0 -86476-7 0  9991
2 49204  87.9217 307.4473 0001655  69.1734 290.9576 13.20772297214982
ONEWEB-0339             
1 49205U 21083V   26002.51484055  .00000062  00000+0  13470-3 0  9991
2 49205  87.8981 353.1569 0001544  84.8914 275.2391 13.13469244209145
